[
  {
    "name": "ONEWEB-0534",
    "noradId": "55797",
    "line1": "1 55797U 23029B   26156.56311048  .00000027  00000+0  33308-4 0  9996",
    "line2": "2 55797  87.9180 276.7874 0001796  98.0919 262.0418 13.20771104159619"
  },
  {
    "name": "ONEWEB-0556",
    "noradId": "55798",
    "line1": "1 55798U 23029C   26156.79712963  .00000048  00000+0  86537-4 0  9998",
    "line2": "2 55798  87.9176 276.7405 0001989  74.6132 285.5221 13.20773289159647"
  },
  {
    "name": "ONEWEB-0562",
    "noradId": "55799",
    "line1": "1 55799U 23029D   26156.85939661 -.00000192  00000+0 -50302-3 0  9994",
    "line2": "2 55799  87.9175 276.7088 0002579  84.9947 275.1480 13.20771197159657"
  },
  {
    "name": "ONEWEB-0563",
    "noradId": "55800",
    "line1": "1 55800U 23029E   26156.85436262 -.00000015  00000+0 -67658-4 0  9993",
    "line2": "2 55800  87.9177 276.7403 0001645  98.1284 262.0036 13.20772394159648"
  },
  {
    "name": "ONEWEB-0564",
    "noradId": "55801",
    "line1": "1 55801U 23029F   26156.62035247 -.00000157  00000+0 -41845-3 0  9993",
    "line2": "2 55801  87.9179 276.7604 0002264  93.9040 266.2352 13.20772069159629"
  },
  {
    "name": "ONEWEB-0638",
    "noradId": "55802",
    "line1": "1 55802U 23029G   26156.82316961  .00000232  00000+0  59256-3 0  9998",
    "line2": "2 55802  87.8950 292.0187 0002001  83.0763 277.0595 13.14502488157901"
  },
  {
    "name": "ONEWEB-0639",
    "noradId": "55803",
    "line1": "1 55803U 23029H   26156.81103073 -.00000061  00000+0 -18502-3 0  9997",
    "line2": "2 55803  87.9160 307.2433 0000811 105.4764 254.6458 13.19725834157407"
  },
  {
    "name": "ONEWEB-0640",
    "noradId": "55804",
    "line1": "1 55804U 23029J   26156.83268282  .00000176  00000+0  44044-3 0  9999",
    "line2": "2 55804  87.8948 292.0074 0001712  77.6063 282.5258 13.14501739157922"
  },
  {
    "name": "ONEWEB-0641",
    "noradId": "55805",
    "line1": "1 55805U 23029K   26156.80628028 -.00000251  00000+0 -65975-3 0  9997",
    "line2": "2 55805  87.9163 307.2324 0001623  98.8131 261.3185 13.19725859157416"
  },
  {
    "name": "ONEWEB-0642",
    "noradId": "55806",
    "line1": "1 55806U 23029L   26156.80154654 -.00000070  00000+0 -20612-3 0  9995",
    "line2": "2 55806  87.9152 307.2469 0001143 121.8164 238.3080 13.19726016157408"
  },
  {
    "name": "ONEWEB-0643",
    "noradId": "55807",
    "line1": "1 55807U 23029M   26156.80255798 -.00000096  00000+0 -29311-3 0  9990",
    "line2": "2 55807  87.8947 292.0008 0001472 119.2130 240.9147 13.14503630157895"
  },
  {
    "name": "ONEWEB-0644",
    "noradId": "55808",
    "line1": "1 55808U 23029N   26156.79679942  .00000035  00000+0  55218-4 0  9997",
    "line2": "2 55808  87.9158 307.2487 0001488 103.2151 256.9148 13.19724241157407"
  },
  {
    "name": "ONEWEB-0645",
    "noradId": "55809",
    "line1": "1 55809U 23029P   26156.81891214  .00000087  00000+0  18616-3 0  9996",
    "line2": "2 55809  87.9154 307.2409 0001324  89.0073 271.1212 13.19722077157407"
  },
  {
    "name": "ONEWEB-0648",
    "noradId": "55811",
    "line1": "1 55811U 23029R   26156.84694162  .00000027  00000+0  37932-4 0  9992",
    "line2": "2 55811  87.8958 291.9642 0000927  92.3438 267.7798 13.14504243157902"
  },
  {
    "name": "ONEWEB-0649",
    "noradId": "55812",
    "line1": "1 55812U 23029S   26156.86156548 -.00000237  00000+0 -62433-3 0  9994",
    "line2": "2 55812  87.9158 307.2306 0001538  93.8525 266.2784 13.19725000157434"
  },
  {
    "name": "ONEWEB-0650",
    "noradId": "55813",
    "line1": "1 55813U 23029T   26156.85681483 -.00001312  00000+0 -33093-2 0  9999",
    "line2": "2 55813  87.9195 307.2298 0000950 111.9974 248.1260 13.19733694157406"
  },
  {
    "name": "ONEWEB-0652",
    "noradId": "55814",
    "line1": "1 55814U 23029U   26156.82792118  .00000233  00000+0  59279-3 0  9999",
    "line2": "2 55814  87.8951 291.9758 0001988  99.8920 260.2435 13.14504345157877"
  },
  {
    "name": "ONEWEB-0653",
    "noradId": "55815",
    "line1": "1 55815U 23029V   26156.81206264  .00000137  00000+0  33476-3 0  9995",
    "line2": "2 55815  87.8952 291.9767 0001876  96.7343 263.4000 13.14502824157907"
  },
  {
    "name": "ONEWEB-0654",
    "noradId": "55816",
    "line1": "1 55816U 23029W   26156.80730954  .00000102  00000+0  23931-3 0  9990",
    "line2": "2 55816  87.8953 291.9738 0002211  95.4994 264.6388 13.14502832157922"
  },
  {
    "name": "ONEWEB-0656",
    "noradId": "55817",
    "line1": "1 55817U 23029X   26156.84089859  .00000062  00000+0  12038-3 0  9997",
    "line2": "2 55817  87.9190 276.6910 0002316  96.7208 263.4189 13.20772578159658"
  },
  {
    "name": "ONEWEB-0657",
    "noradId": "55818",
    "line1": "1 55818U 23029Y   26156.85209435  .00000014  00000+0  24347-5 0  9998",
    "line2": "2 55818  87.9159 307.2338 0002346 109.2350 250.9036 13.19723989157414"
  },
  {
    "name": "ONEWEB-0658",
    "noradId": "55819",
    "line1": "1 55819U 23029Z   26156.84735357 -.00000163  00000+0 -43877-3 0  9999",
    "line2": "2 55819  87.9169 307.2095 0001432 104.4950 255.6342 13.19725744157428"
  },
  {
    "name": "ONEWEB-0660",
    "noradId": "55820",
    "line1": "1 55820U 23029AA  26156.86122269 -.00000199  00000+0 -57123-3 0  9993",
    "line2": "2 55820  87.8964 291.9548 0001635  91.2745 268.8572 13.14502600157918"
  },
  {
    "name": "ONEWEB-0661",
    "noradId": "55821",
    "line1": "1 55821U 23029AB  26156.81999970  .00000234  00000+0  59751-3 0  9997",
    "line2": "2 55821  87.8938 292.0101 0001722  90.3128 269.8199 13.14502007157893"
  },
  {
    "name": "ONEWEB-0662",
    "noradId": "55822",
    "line1": "1 55822U 23029AC  26156.85487890 -.00000109  00000+0 -32835-3 0  9992",
    "line2": "2 55822  87.8943 292.0093 0001590  91.4619 268.6693 13.14502050157940"
  },
  {
    "name": "ONEWEB-0663",
    "noradId": "55823",
    "line1": "1 55823U 23029AD  26156.79967086  .00000007  00000+0 -14247-4 0  9990",
    "line2": "2 55823  87.9189 276.7711 0001457  97.3369 262.7930 13.20868606159646"
  },
  {
    "name": "ONEWEB-0664",
    "noradId": "55824",
    "line1": "1 55824U 23029AE  26156.82741290 -.00000103  00000+0 -28647-3 0  9998",
    "line2": "2 55824  87.9178 276.7472 0002061  86.1006 274.0363 13.20770073159641"
  },
  {
    "name": "ONEWEB-0665",
    "noradId": "55825",
    "line1": "1 55825U 23029AF  26156.81682959  .00000256  00000+0  65472-3 0  9998",
    "line2": "2 55825  87.8945 291.9915 0001524  94.3503 265.7801 13.14502853157914"
  }
]