OBJECT_NAME,OBJECT_ID,EPOCH,MEAN_MOTION,ECCENTRICITY,INCLINATION,RA_OF_ASC_NODE,ARG_OF_PERICENTER,MEAN_ANOMALY,EPHEMERIS_TYPE,CLASSIFICATION_TYPE,NORAD_CAT_ID,ELEMENT_SET_NO,REV_AT_EPOCH,BSTAR,MEAN_MOTION_DOT,MEAN_MOTION_DDOT
ONEWEB-0534,2023-029B,2026-06-05T13:30:52.745472,13.20771104,.00017964,87.9180,276.7874,98.0919,262.0418,0,U,55797,999,15961,.33307884E-4,.27E-6,0
ONEWEB-0556,2023-029C,2026-06-05T19:07:52.000032,13.20773289,.0001989,87.9176,276.7405,74.6132,285.5221,0,U,55798,999,15964,.86536898E-4,.48E-6,0
ONEWEB-0562,2023-029D,2026-06-05T20:37:31.867104,13.20771197,.000258,87.9175,276.7088,84.9947,275.1480,0,U,55799,999,15965,-.50302E-3,-.192E-5,0
ONEWEB-0563,2023-029E,2026-06-05T20:30:16.930368,13.20772394,.0001646,87.9177,276.7403,98.1284,262.0036,0,U,55800,999,15964,-.67658E-4,-.15E-6,0
ONEWEB-0564,2023-029F,2026-06-05T14:53:18.453408,13.20772069,.00022644,87.9179,276.7604,93.9040,266.2352,0,U,55801,999,15962,-.41845246E-3,-.157E-5,0
ONEWEB-0638,2023-029G,2026-06-05T19:45:21.854304,13.14502488,.0002002,87.8950,292.0187,83.0763,277.0595,0,U,55802,999,15790,.59256E-3,.232E-5,0
ONEWEB-0639,2023-029H,2026-06-05T19:27:53.055072,13.19725834,.00008119,87.9160,307.2433,105.4764,254.6458,0,U,55803,999,15740,-.18501713E-3,-.61E-6,0
ONEWEB-0640,2023-029J,2026-06-05T19:59:03.794784,13.14501739,.0001713,87.8948,292.0074,77.6063,282.5258,0,U,55804,999,15792,.44044E-3,.176E-5,0
ONEWEB-0641,2023-029K,2026-06-05T19:21:02.616192,13.19725859,.00016235,87.9163,307.2324,98.8131,261.3185,0,U,55805,999,15741,-.65975257E-3,-.251E-5,0
ONEWEB-0642,2023-029L,2026-06-05T19:14:13.621056,13.19726016,.0001143,87.9152,307.2469,121.8164,238.3080,0,U,55806,999,15740,-.20611502E-3,-.7E-6,0
ONEWEB-0643,2023-029M,2026-06-05T19:15:41.009472,13.14503630,.00014722,87.8947,292.0008,119.2130,240.9147,0,U,55807,999,15789,-.29311048E-3,-.96E-6,0
ONEWEB-0644,2023-029N,2026-06-05T19:07:23.469888,13.19724241,.00014885,87.9158,307.2487,103.2151,256.9148,0,U,55808,999,15740,.55217739E-4,.35E-6,0
ONEWEB-0645,2023-029P,2026-06-05T19:39:14.008032,13.19722077,.0001324,87.9154,307.2409,89.0073,271.1212,0,U,55809,999,15740,.18616E-3,.87E-6,0
ONEWEB-0648,2023-029R,2026-06-05T20:19:35.755104,13.14504242,.0000927,87.8958,291.9642,92.3438,267.7798,0,U,55811,999,15790,.37932E-4,.27E-6,0
ONEWEB-0649,2023-029S,2026-06-05T20:40:39.256608,13.19725000,.0001538,87.9158,307.2306,93.8525,266.2784,0,U,55812,999,15743,-.62433E-3,-.237E-5,0
ONEWEB-0650,2023-029T,2026-06-05T20:33:48.801312,13.19733694,.0000951,87.9195,307.2298,111.9974,248.1260,0,U,55813,999,15740,-.33093E-2,-.1312E-4,0
ONEWEB-0652,2023-029U,2026-06-05T19:52:12.389088,13.14504345,.0001988,87.8951,291.9758,99.8920,260.2435,0,U,55814,999,15787,.59279E-3,.233E-5,0
ONEWEB-0653,2023-029V,2026-06-05T19:29:22.212096,13.14502824,.00018766,87.8952,291.9767,96.7343,263.4000,0,U,55815,999,15790,.33476379E-3,.137E-5,0
ONEWEB-0654,2023-029W,2026-06-05T19:22:31.544256,13.14502832,.0002211,87.8953,291.9738,95.4994,264.6388,0,U,55816,999,15792,.23930727E-3,.102E-5,0
ONEWEB-0656,2023-029X,2026-06-05T20:10:53.638176,13.20772578,.0002317,87.9190,276.6910,96.7208,263.4189,0,U,55817,999,15965,.12038E-3,.62E-6,0
ONEWEB-0657,2023-029Y,2026-06-05T20:27:00.950976,13.19723989,.0002346,87.9159,307.2338,109.2350,250.9036,0,U,55818,999,15741,.24347E-5,.14E-6,0
ONEWEB-0658,2023-029Z,2026-06-05T20:20:11.347584,13.19725744,.0001432,87.9169,307.2095,104.4950,255.6342,0,U,55819,999,15742,-.43877E-3,-.163E-5,0
ONEWEB-0660,2023-029AA,2026-06-05T20:40:09.640416,13.14502600,.0001635,87.8964,291.9548,91.2745,268.8572,0,U,55820,999,15791,-.57123E-3,-.199E-5,0
ONEWEB-0661,2023-029AB,2026-06-05T19:40:47.974080,13.14502007,.0001723,87.8938,292.0101,90.3128,269.8199,0,U,55821,999,15789,.59751E-3,.234E-5,0
ONEWEB-0662,2023-029AC,2026-06-05T20:31:01.536096,13.14502050,.000159,87.8943,292.0093,91.4619,268.6693,0,U,55822,999,15794,-.32835E-3,-.109E-5,0
ONEWEB-0663,2023-029AD,2026-06-05T19:11:31.562304,13.20868606,.00014575,87.9189,276.7711,97.3369,262.7930,0,U,55823,999,15964,-.14247203E-4,.7E-7,0
ONEWEB-0664,2023-029AE,2026-06-05T19:51:28.473696,13.20770073,.0002062,87.9178,276.7472,86.1006,274.0363,0,U,55824,999,15964,-.28647E-3,-.103E-5,0
ONEWEB-0665,2023-029AF,2026-06-05T19:36:14.075712,13.14502853,.0001525,87.8945,291.9915,94.3503,265.7801,0,U,55825,999,15791,.65472E-3,.256E-5,0
